OBJECT_NAME,OBJECT_ID,EPOCH,MEAN_MOTION,ECCENTRICITY,INCLINATION,RA_OF_ASC_NODE,ARG_OF_PERICENTER,MEAN_ANOMALY,EPHEMERIS_TYPE,CLASSIFICATION_TYPE,NORAD_CAT_ID,ELEMENT_SET_NO,REV_AT_EPOCH,BSTAR,MEAN_MOTION_DOT,MEAN_MOTION_DDOT
CUBEBUG-2 (LO-74),2013-066AA,2026-07-18T19:29:11.012064,14.93981472,.0055576,97.8920,148.9319,283.1152,76.3869,0,U,39440,999,68171,.17796E-3,.1891E-4,0
FUNCUBE-1 (AO-73),2013-066AE,2026-07-18T20:54:53.730144,15.09848087,.0037964,97.8298,171.9904,95.7411,264.8148,0,U,39444,999,68444,.27859E-3,.4515E-4,0
UWE-3,2013-066AG,2026-07-18T19:53:41.818272,14.97214313,.0047627,97.8721,156.1237,212.0168,147.8158,0,U,39446,999,68231,.18604E-3,.2139E-4,0
UNISAT-6,2014-033C,2026-07-18T15:57:04.934016,14.88373922,.0043894,97.7914,351.8313,326.1147,33.7267,0,U,40012,999,65084,.10771E-3,.958E-5,0
DUCHIFAT-1,2014-033M,2026-07-18T16:08:38.935968,15.71696006,.0003153,98.0415,263.4357,232.8599,127.2374,0,U,40021,999,66068,.72509E-3,.94147E-3,0
QB50P1,2014-033R,2026-07-18T07:39:18.658080,15.18693321,.0010487,98.0968,212.6585,115.5699,244.6619,0,U,40025,999,65775,.21985551E-3,.4488E-4,0
LILACSAT-2,2015-049K,2026-07-18T20:46:44.470272,15.52440772,.0008572,97.4623,237.9281,130.7952,229.4046,0,U,40908,999,60066,.17436E-3,.10571E-3,0
FOX-1A (AO-85),2015-058D,2026-07-18T16:12:01.429056,14.91100292,.0132657,64.7726,181.1175,44.4905,316.6768,0,U,40967,999,11826,.14854E-3,.1565E-4,0
CAS-2T & KS-1Q,2016-066G,2026-07-18T19:43:06.860352,14.44774190,.034207,98.3812,275.1958,33.7721,328.4756,0,U,41847,999,50936,.686E-4,.428E-5,0
RADFXSAT (FOX-1B),2017-073E,2026-07-18T21:19:39.755712,15.13090788,.014837,97.4662,66.4574,218.5900,140.4654,0,U,43017,999,47018,.15125E-3,.3432E-4,0
DIWATA-2B,2018-084H,2026-07-18T20:17:01.850784,15.00571240,.0012639,98.1213,37.4399,73.2331,287.0277,0,U,43678,999,42096,.85085E-4,.1009E-4,0
ES'HAIL 2,2018-090A,2026-07-18T17:42:51.318144,1.00273048,.0002366,0.0167,76.3630,81.6518,70.0161,0,U,43700,999,2799,0,.137E-5,0
FOX-1CLIFF (AO-95),2018-099N,2026-07-18T03:19:05.980224,15.27309721,.00074754,97.4363,259.2809,227.7066,132.3540,0,U,43770,999,41794,.22607484E-3,.5977E-4,0
ITASAT,2018-099AE,2026-07-18T16:51:23.038272,15.19405003,.00111,97.4009,250.5895,236.4623,123.5552,0,U,43786,999,41769,.15156E-3,.3145E-4,0
JY1SAT (JO-97),2018-099AX,2026-07-18T03:25:52.114656,15.34577339,.00070997,97.4106,262.1024,149.2378,210.9282,0,U,43803,999,41837,.28599386E-3,.9509E-4,0
UWE-4,2018-111E,2026-07-18T18:41:09.153024,15.47960214,.0006675,97.5834,129.6699,180.9155,179.2083,0,U,43880,999,41566,.35827E-3,.18634E-3,0
TIANYAN 01,2019-093C,2026-07-18T19:34:41.460960,14.86562778,.0013218,97.7515,271.2747,349.4580,10.6357,0,U,44881,999,35611,.60124E-4,.48E-5,0
RS-44 & BREEZE-KM R/B,2019-096E,2026-07-18T19:47:29.546592,12.79748895,.0218471,82.5244,318.6831,70.5556,291.9010,0,U,44909,999,30639,.14406E-4,.16E-6,0
SALSAT,2020-068K,2026-07-18T00:21:03.770208,15.30195257,.00094957,97.8861,203.9671,182.8082,177.3106,0,U,46495,999,32007,.14176866E-3,.4061E-4,0
XW-3 (CAS-9),2021-131B,2026-07-18T20:21:31.202784,14.41383889,.0004364,98.4987,292.0672,21.0118,339.1250,0,U,50466,999,23967,.12112E-3,.348E-5,0
GREENCUBE (IO-117),2022-080E,2026-07-18T14:56:54.558816,6.42583326,.0009081,70.1404,287.3145,282.7035,77.2609,0,U,53109,999,9408,0,-.3E-7,0
UMKA 1 (RS40S),2023-091G,2026-07-18T19:17:38.247360,15.21143408,.0012682,97.5030,258.3835,17.4213,342.7455,0,U,57172,999,16881,.13265E-3,.2888E-4,0
CUBESX-HSE 3 (RS42S),2023-091N,2026-07-18T20:38:53.759616,15.31936143,.0009284,97.5070,265.8619,348.3976,11.7050,0,U,57178,999,16927,.22691E-3,.6925E-4,0
MONITOR-3 (RS58S),2023-091Q,2026-07-18T19:48:32.769792,15.28411956,.0010608,97.5062,263.5138,356.6235,3.4931,0,U,57180,999,16912,.18434E-3,.5029E-4,0
MONITOR-4 (RS57S),2023-091S,2026-07-18T20:50:06.931392,15.28499752,.0010609,97.5055,263.5299,356.9108,3.2064,0,U,57182,999,16913,.19496E-3,.5338E-4,0
MONITOR-2 (RS39S),2023-091U,2026-07-18T20:46:23.722176,15.19172480,.0011029,97.5051,257.9461,11.7072,348.4416,0,U,57184,999,16876,.11186E-3,.2286E-4,0
SVYATOBOR 1 (RS60S),2023-091X,2026-07-18T20:15:14.324256,15.27096886,.0008364,97.5068,263.8442,351.2790,8.8302,0,U,57187,999,16914,.17163E-3,.4489E-4,0
VIZARD-METEO (RS38S),2023-091Z,2026-07-18T20:42:54.412992,15.36941797,.0005371,97.5070,270.0027,323.7824,36.3055,0,U,57189,999,16955,.25014E-3,.8957E-4,0
POLYTECH-UNIVERSE 3 (RS46S),2023-091AB,2026-07-18T19:44:29.387040,15.19385261,.0015731,97.5026,257.4076,25.6157,334.5854,0,U,57191,999,16875,.11657E-3,.2404E-4,0
UTMN 2 (RS27S),2023-091AP,2026-07-18T20:39:40.917600,15.32752166,.0006387,97.5066,267.5347,335.6878,24.4061,0,U,57203,999,16939,.21256E-3,.6646E-4,0
