CUBEBUG-2 (LO-74)       
1 39440U 13066AA  26199.81193301  .00001891  00000+0  17796-3 0  9990
2 39440  97.8920 148.9319 0055576 283.1152  76.3869 14.93981472681712
FUNCUBE-1 (AO-73)       
1 39444U 13066AE  26199.87145521  .00004515  00000+0  27859-3 0  9998
2 39444  97.8298 171.9904 0037964  95.7411 264.8148 15.09848087684445
UWE-3                   
1 39446U 13066AG  26199.82895623  .00002139  00000+0  18604-3 0  9998
2 39446  97.8721 156.1237 0047627 212.0168 147.8158 14.97214313682312
UNISAT-6                
1 40012U 14033C   26199.66464044  .00000958  00000+0  10771-3 0  9999
2 40012  97.7914 351.8313 0043894 326.1147  33.7267 14.88373922650840
DUCHIFAT-1              
1 40021U 14033M   26199.67267287  .00094147  00000+0  72509-3 0  9990
2 40021  98.0415 263.4357 0003153 232.8599 127.2374 15.71696006660689
QB50P1                  
1 40025U 14033R   26199.31896595  .00004488  00000+0  21986-3 0  9997
2 40025  98.0968 212.6585 0010487 115.5699 244.6619 15.18693321657759
LILACSAT-2              
1 40908U 15049K   26199.86579248  .00010571  00000+0  17436-3 0  9993
2 40908  97.4623 237.9281 0008572 130.7952 229.4046 15.52440772600667
FOX-1A (AO-85)          
1 40967U 15058D   26199.67501654  .00001565  00000+0  14854-3 0  9997
2 40967  64.7726 181.1175 0132657  44.4905 316.6768 14.91100292118268
CAS-2T & KS-1Q          
1 41847U 16066G   26199.82160718  .00000428  00000+0  68600-4 0  9990
2 41847  98.3812 275.1958 0342070  33.7721 328.4756 14.44774190509362
RADFXSAT (FOX-1B)       
1 43017U 17073E   26199.88865458  .00003432  00000+0  15125-3 0  9990
2 43017  97.4662  66.4574 0148370 218.5900 140.4654 15.13090788470187
DIWATA-2B               
1 43678U 18084H   26199.84516031  .00001009  00000+0  85085-4 0  9993
2 43678  98.1213  37.4399 0012639  73.2331 287.0277 15.00571240420968
ES'HAIL 2               
1 43700U 18090A   26199.73809396  .00000137  00000+0  00000+0 0  9993
2 43700   0.0167  76.3630 0002366  81.6518  70.0161  1.00273048 27998
FOX-1CLIFF (AO-95)      
1 43770U 18099N   26199.13826366  .00005977  00000+0  22607-3 0  9997
2 43770  97.4363 259.2809 0007475 227.7066 132.3540 15.27309721417943
ITASAT                  
1 43786U 18099AE  26199.70234998  .00003145  00000+0  15156-3 0  9997
2 43786  97.4009 250.5895 0011100 236.4623 123.5552 15.19405003417690
JY1SAT (JO-97)          
1 43803U 18099AX  26199.14296429  .00009509  00000+0  28599-3 0  9997
2 43803  97.4106 262.1024 0007099 149.2378 210.9282 15.34577339418377
UWE-4                   
1 43880U 18111E   26199.77857816  .00018634  00000+0  35827-3 0  9990
2 43880  97.5834 129.6699 0006675 180.9155 179.2083 15.47960214415667
TIANYAN 01              
1 44881U 19093C   26199.81575765  .00000480  00000+0  60124-4 0  9996
2 44881  97.7515 271.2747 0013218 349.4580  10.6357 14.86562778356111
RS-44 & BREEZE-KM R/B   
1 44909U 19096E   26199.82464753  .00000016  00000+0  14406-4 0  9992
2 44909  82.5244 318.6831 0218471  70.5556 291.9010 12.79748895306397
SALSAT                  
1 46495U 20068K   26199.01462697  .00004061  00000+0  14177-3 0  9999
2 46495  97.8861 203.9671 0009495 182.8082 177.3106 15.30195257320078
XW-3 (CAS-9)            
1 50466U 21131B   26199.84827781  .00000348  00000+0  12112-3 0  9995
2 50466  98.4987 292.0672 0004364  21.0118 339.1250 14.41383889239675
GREENCUBE (IO-117)      
1 53109U 22080E   26199.62285369 -.00000003  00000+0  00000+0 0  9990
2 53109  70.1404 287.3145 0009081 282.7035  77.2609  6.42583326 94082
UMKA 1 (RS40S)          
1 57172U 23091G   26199.80391490  .00002888  00000+0  13265-3 0  9993
2 57172  97.5030 258.3835 0012682  17.4213 342.7455 15.21143408168812
CUBESX-HSE 3 (RS42S)    
1 57178U 23091N   26199.86034444  .00006925  00000+0  22691-3 0  9997
2 57178  97.5070 265.8619 0009284 348.3976  11.7050 15.31936143169273
MONITOR-3 (RS58S)       
1 57180U 23091Q   26199.82537928  .00005029  00000+0  18434-3 0  9995
2 57180  97.5062 263.5138 0010608 356.6235   3.4931 15.28411956169126
MONITOR-4 (RS57S)       
1 57182U 23091S   26199.86813578  .00005338  00000+0  19496-3 0  9991
2 57182  97.5055 263.5299 0010609 356.9108   3.2064 15.28499752169137
MONITOR-2 (RS39S)       
1 57184U 23091U   26199.86555234  .00002286  00000+0  11186-3 0  9992
2 57184  97.5051 257.9461 0011029  11.7072 348.4416 15.19172480168765
SVYATOBOR 1 (RS60S)     
1 57187U 23091X   26199.84391579  .00004489  00000+0  17163-3 0  9991
2 57187  97.5068 263.8442 0008364 351.2790   8.8302 15.27096886169146
VIZARD-METEO (RS38S)    
1 57189U 23091Z   26199.86312978  .00008957  00000+0  25014-3 0  9999
2 57189  97.5070 270.0027 0005371 323.7824  36.3055 15.36941797169553
POLYTECH-UNIVERSE 3 (R*)
1 57191U 23091AB  26199.82256235  .00002404  00000+0  11657-3 0  9990
2 57191  97.5026 257.4076 0015731  25.6157 334.5854 15.19385261168758
UTMN 2 (RS27S)          
1 57203U 23091AP  26199.86089025  .00006646  00000+0  21256-3 0  9997
2 57203  97.5066 267.5347 0006387 335.6878  24.4061 15.32752166169393
